NORAD_CAT_ID,OBJECT_NAME,OBJECT_TYPE,EPOCH,MEAN_MOTION,ECCENTRICITY,INCLINATION,RA_OF_ASC_NODE,ARG_OF_PERICENTER,MEAN_ANOMALY,BSTAR,MEAN_MOTION_DOT,MEAN_MOTION_DDOT,TLE_LINE0,TLE_LINE1,TLE_LINE2,SEMIMAJOR_AXIS,PERIOD,APOGEE,PERIGEE,DECAYED
55412.0,STARLINK-5033,PAYLOAD,2024-04-30 01:34:01,14.98331109,0.0003067,70.0003,355.3948,269.5221,90.5587,5.8898e-05,6.1e-06,0.0,0 STARLINK-5033,1 55412U 23014X   24121.06529297  .00000610  00000-0  58898-4 0  9996,2 55412  70.0003 355.3948 0003067 269.5221  90.5587 14.98331109 69917,6950.189,96.107,574.186,569.923,0.0
55412.0,STARLINK-5033,PAYLOAD,2024-04-30 20:47:37,14.98332449,0.0003084,70.0003,353.3749,269.4607,90.6199,2.9157e-05,2.55e-06,0.0,0 STARLINK-5033,1 55412U 23014X   24121.86641169  .00000255  00000-0  29157-4 0  9998,2 55412  70.0003 353.3749 0003084 269.4607  90.6199 14.98332449 69097,6950.185,96.107,574.194,569.907,0.0
55412.0,STARLINK-5033,PAYLOAD,2024-04-30 22:23:45,14.98333595,0.0003092,70.0003,353.2067,269.5161,90.5644,2.9969e-05,2.65e-06,0.0,0 STARLINK-5033,1 55412U 23014X   24121.93317080  .00000265  00000-0  29969-4 0  9990,2 55412  70.0003 353.2067 0003092 269.5161  90.5644 14.98333595 70048,6950.182,96.107,574.196,569.898,0.0
55412.0,STARLINK-5033,PAYLOAD,2024-05-01 01:36:01,14.98334611,0.0003066,70.0002,352.8699,269.5049,90.5759,4.1234e-05,3.99e-06,0.0,0 STARLINK-5033,1 55412U 23014X   24122.06668944  .00000399  00000-0  41234-4 0  9990,2 55412  70.0002 352.8699 0003066 269.5049  90.5759 14.98334611 70068,6950.179,96.107,574.175,569.913,0.0
55412.0,STARLINK-5033,PAYLOAD,2024-05-02 01:38:03,14.98330437,0.0002965,70.0003,350.3453,269.1695,90.9124,-2.7005e-05,-4.15e-06,0.0,0 STARLINK-5033,1 55412U 23014X   24123.06809229 -.00000415  00000-0 -27005-4 0  9995,2 55412  70.0003 350.3453 0002965 269.1695  90.9124 14.98330437 69273,6950.192,96.107,574.117,569.996,0.0
55412.0,STARLINK-5033,PAYLOAD,2024-05-02 08:02:35,14.98330617,0.0002972,70.0003,349.6718,269.6139,90.4679,-2.3894e-05,-3.78e-06,0.0,0 STARLINK-5033,1 55412U 23014X   24123.33513183 -.00000378  00000-0 -23894-4 0  9996,2 55412  70.0003 349.6718 0002972 269.6139  90.4679 14.98330617 70254,6950.191,96.107,574.122,569.99,0.0
55412.0,STARLINK-5033,PAYLOAD,2024-05-03 08:04:36,14.98330352,0.0002915,69.9998,347.1468,269.4046,90.6779,-2.1846e-05,-3.54e-06,0.0,0 STARLINK-5033,1 55412U 23014X   24124.33653065 -.00000354  00000-0 -21846-4 0  9990,2 55412  69.9998 347.1468 0002915 269.4046  90.6779 14.98330352 69461,6950.192,96.107,574.083,570.031,0.0
55412.0,STARLINK-5033,PAYLOAD,2024-05-03 14:29:08,14.98330365,0.0002945,69.9994,346.4732,269.4088,90.6733,-7.0513e-06,-1.77e-06,0.0,0 STARLINK-5033,1 55412U 23014X   24124.60357036 -.00000177  00000-0 -70513-5 0  9998,2 55412  69.9994 346.4732 0002945 269.4088  90.6733 14.98330365 70446,6950.192,96.107,574.104,570.01,0.0
55412.0,STARLINK-5033,PAYLOAD,2024-05-03 22:29:48,14.98327925,0.0002985,69.9997,345.6315,268.84,91.2417,-1.4027e-05,-2.6e-06,0.0,0 STARLINK-5033,1 55412U 23014X   24124.93737171 -.00000260  00000-0 -14027-4 0  9996,2 55412  69.9997 345.6315 0002985 268.8400  91.2417 14.98327925 70491,6950.199,96.107,574.139,569.99,0.0
55412.0,STARLINK-5033,PAYLOAD,2024-05-04 08:06:37,14.98328781,0.0003016,69.9995,344.6214,269.4438,90.6375,-5.8285e-06,-1.63e-06,0.0,0 STARLINK-5033,1 55412U 23014X   24125.33793112 -.00000163  00000-0 -58285-5 0  9995,2 55412  69.9995 344.6214 0003016 269.4438  90.6375 14.98328781 69619,6950.197,96.107,574.158,569.965,0.0
55412.0,STARLINK-5033,PAYLOAD,2024-05-05 00:07:57,14.98329454,0.0003062,69.9995,342.9379,269.245,90.8358,-1.5792e-05,-2.81e-06,0.0,0 STARLINK-5033,1 55412U 23014X   24126.00553107 -.00000281  00000-0 -15792-4 0  9994,2 55412  69.9995 342.9379 0003062 269.2450  90.8358 14.98329454 70652,6950.195,96.107,574.188,569.931,0.0
55412.0,STARLINK-5033,PAYLOAD,2024-05-05 20:57:42,14.9832892,0.0003103,69.9995,340.75,269.7394,90.3409,1.0377e-05,3.1e-07,0.0,0 STARLINK-5033,1 55412U 23014X   24126.87341073  .00000031  00000-0  10377-4 0  9991,2 55412  69.9995 340.7500 0003103 269.7394  90.3409 14.98328920 69840,6950.196,96.107,574.218,569.905,0.0
55412.0,STARLINK-5033,PAYLOAD,2024-05-05 22:33:50,14.98329715,0.0003087,69.9995,340.5816,269.6953,90.3852,1.859e-05,1.29e-06,0.0,0 STARLINK-5033,1 55412U 23014X   24126.94017001  .00000129  00000-0  18590-4 0  9993,2 55412  69.9995 340.5816 0003087 269.6953  90.3852 14.98329715 70790,6950.194,96.107,574.204,569.913,0.0
55412.0,STARLINK-5033,PAYLOAD,2024-05-06 14:35:11,14.98331765,0.0003078,69.9995,338.8982,269.7589,90.3218,3.492e-05,3.24e-06,0.0,0 STARLINK-5033,1 55412U 23014X   24127.60776775  .00000324  00000-0  34920-4 0  9999,2 55412  69.9995 338.8982 0003078 269.7589  90.3218 14.98331765 70895,6950.187,96.107,574.192,569.913,0.0
55412.0,STARLINK-5033,PAYLOAD,2024-05-06 20:59:43,14.98333088,0.0003073,69.9995,338.2249,269.7956,90.2851,4.9332e-05,4.96e-06,0.0,0 STARLINK-5033,1 55412U 23014X   24127.87480603  .00000496  00000-0  49332-4 0  9993,2 55412  69.9995 338.2249 0003073 269.7956  90.2851 14.98333088 69999,6950.183,96.107,574.184,569.913,0.0
55412.0,STARLINK-5033,PAYLOAD,2024-05-06 22:35:51,14.98333393,0.0003063,69.9995,338.0564,269.9115,90.1693,5.2855e-05,5.38e-06,0.0,0 STARLINK-5033,1 55412U 23014X   24127.94156560  .00000538  00000-0  52855-4 0  9994,2 55412  69.9995 338.0564 0003063 269.9115  90.1693 14.98333393 70944,6950.182,96.107,574.176,569.919,0.0
55412.0,STARLINK-5033,PAYLOAD,2024-05-07 14:37:12,14.98329679,0.0002951,69.9997,336.3734,269.3284,90.7537,7.3204e-07,-8.4e-07,0.0,0 STARLINK-5033,1 55412U 23014X   24128.60916845 -.00000084  00000-0  73204-6 0  9998,2 55412  69.9997 336.3734 0002951 269.3284  90.7537 14.98329679 71049,6950.194,96.107,574.11,570.008,0.0
55412.0,STARLINK-5033,PAYLOAD,2024-05-07 21:01:44,14.98329221,0.0002965,69.9996,335.7,269.3159,90.766,-4.8534e-06,-1.51e-06,0.0,0 STARLINK-5033,1 55412U 23014X   24128.87620875 -.00000151  00000-0 -48534-5 0  9995,2 55412  69.9996 335.7000 0002965 269.3159  90.7660 14.98329221 70143,6950.195,96.107,574.121,570.0,0.0
55412.0,STARLINK-5033,PAYLOAD,2024-05-08 14:39:13,14.98330101,0.0002966,69.9995,333.8483,269.1807,90.9012,-5.0478e-05,-6.95e-06,0.0,0 STARLINK-5033,1 55412U 23014X   24129.61056936 -.00000695  00000-0 -50478-4 0  9991,2 55412  69.9995 333.8483 0002966 269.1807  90.9012 14.98330101 71193,6950.193,96.107,574.119,569.996,0.0
55412.0,STARLINK-5033,PAYLOAD,2024-05-08 21:03:45,14.98328815,0.0002992,69.9996,333.1749,269.4573,90.6244,-6.0431e-05,-8.14e-06,0.0,0 STARLINK-5033,1 55412U 23014X   24129.87761037 -.00000814  00000-0 -60431-4 0  9997,2 55412  69.9996 333.1749 0002992 269.4573  90.6244 14.98328815 70297,6950.197,96.107,574.141,569.982,0.0
55412.0,STARLINK-5033,PAYLOAD,2024-05-08 22:39:53,14.9832862,0.0002992,69.9996,333.0066,269.4197,90.6619,-6.1306e-05,-8.24e-06,0.0,0 STARLINK-5033,1 55412U 23014X   24129.94437055 -.00000824  00000-0 -61306-4 0  9998,2 55412  69.9996 333.0066 0002992 269.4197  90.6619 14.98328620 71246,6950.197,96.107,574.142,569.983,0.0
55412.0,STARLINK-5033,PAYLOAD,2024-05-09 14:41:14,14.98329936,0.0003055,69.9994,331.3229,268.8218,91.2591,1.5207e-05,8.8e-07,0.0,0 STARLINK-5033,1 55412U 23014X   24130.61196763  .00000088  00000-0  15207-4 0  9991,2 55412  69.9994 331.3229 0003055 268.8218  91.2591 14.98329936 71342,6950.193,96.107,574.181,569.935,0.0
55412.0,STARLINK-5033,PAYLOAD,2024-05-09 21:05:46,14.98330039,0.0003058,69.9994,330.6495,268.7552,91.3256,1.6687e-05,1.06e-06,0.0,0 STARLINK-5033,1 55412U 23014X   24130.87900753  .00000106  00000-0  16687-4 0  9995,2 55412  69.9994 330.6495 0003058 268.7552  91.3256 14.98330039 70447,6950.193,96.107,574.183,569.932,0.0
55412.0,STARLINK-5033,PAYLOAD,2024-05-09 22:41:54,14.98330426,0.0003054,69.9994,330.4812,268.7579,91.3231,2.0894e-05,1.56e-06,0.0,0 STARLINK-5033,1 55412U 23014X   24130.94576715  .00000156  00000-0  20894-4 0  9990,2 55412  69.9994 330.4812 0003054 268.7579  91.3231 14.98330426 71391,6950.192,96.107,574.179,569.934,0.0
55412.0,STARLINK-5033,PAYLOAD,2024-05-10 14:43:15,14.9832441,0.000309,69.9993,328.7977,269.6963,90.3842,1.5723e-06,-7.4e-07,0.0,0 STARLINK-5033,1 55412U 23014X   24131.61337193 -.00000074  00000-0  15723-5 0  9996,2 55412  69.9993 328.7977 0003090 269.6963  90.3842 14.98324410 71493,6950.21,96.107,574.223,569.928,0.0
55412.0,STARLINK-5033,PAYLOAD,2024-05-10 21:07:47,14.98326886,0.000316,69.9991,328.1238,269.0392,91.0405,-9.9912e-06,-2.12e-06,0.0,0 STARLINK-5033,1 55412U 23014X   24131.88041110 -.00000212  00000-0 -99912-5 0  9993,2 55412  69.9991 328.1238 0003160 269.0392  91.0405 14.98326886 70595,6950.203,96.107,574.264,569.871,0.0
55412.0,STARLINK-5033,PAYLOAD,2024-05-10 22:43:55,14.98327762,0.0003157,69.9992,327.9554,269.0921,90.9876,-4.2546e-06,-1.44e-06,0.0,0 STARLINK-5033,1 55412U 23014X   24131.94717049 -.00000144  00000-0 -42546-5 0  9996,2 55412  69.9992 327.9554 0003157 269.0921  90.9876 14.98327762 71548,6950.2,96.107,574.259,569.871,0.0
55412.0,STARLINK-5033,PAYLOAD,2024-05-11 13:09:01,14.98315038,0.0001252,70.0001,326.4418,233.2732,126.8312,-0.00054418,-6.577e-05,0.0,0 STARLINK-5033,1 55412U 23014X   24132.54793793 -.00006577  00000-0 -54418-3 0  9998,2 55412  70.0001 326.4418 0001252 233.2732 126.8312 14.98315038 70694,6950.239,96.108,572.974,571.234,0.0
55412.0,STARLINK-5033,PAYLOAD,2024-05-11 14:47:07,14.96787103,0.0007166,70.0001,326.2774,114.2263,245.9645,-0.018019,-0.00201005,0.0,0 STARLINK-5033,1 55412U 23014X   24132.61605468 -.00201005  00000-0 -18019-1 0  9995,2 55412  70.0001 326.2774 0007166 114.2263 245.9645 14.96787103 70702,6954.968,96.206,581.817,571.849,0.0
55412.0,STARLINK-5033,PAYLOAD,2024-05-12 06:00:00,14.98274533,0.0002842,70.0008,324.6698,275.6186,270.0692,-5.9443e-05,-8.01e-06,0.0,0 STARLINK-5033,1 55412U 23014X   24133.25001157 -.00000801  00000-0 -59443-4 0  9991,2 55412  70.0008 324.6698 0002842 275.6186 270.0692 14.98274533 70800,6950.364,96.111,574.205,570.254,0.0
